[{"OBJECT_ID":"1988-109K","OBJECT_NAME":"ARIANE 44LP DEB","NORAD_CAT_ID":"25543","OBJECT_TYPE":"DEBRIS","PERIOD":"627.289","INCLINATION":"6.5745","ECCENTRICITY":"0.71827430","MEAN_MOTION":"2.29559152","TLE_LINE1":"1 25543U 88109K   21271.78521304 -.00000188  00000-0  17261-3 0  9996","TLE_LINE2":"2 25543   6.5745 193.9543 7182743 159.4125 258.8471  2.29559152196990"},{"OBJECT_ID":"1988-077S","OBJECT_NAME":"TITAN 34D TRANSTAGE DEB","NORAD_CAT_ID":"25587","OBJECT_TYPE":"DEBRIS","PERIOD":"318.255","INCLINATION":"27.1609","ECCENTRICITY":"0.55661840","MEAN_MOTION":"4.52467726","TLE_LINE1":"1 25587U 88077S   21271.19840344 -.00000041  00000-0 -77380-4 0  9999","TLE_LINE2":"2 25587  27.1609 272.3437 5566184 179.9925 180.0835  4.52467726 36365"},{"OBJECT_ID":"1983-078E","OBJECT_NAME":"TITAN 34B AGENA D DEB","NORAD_CAT_ID":"25588","OBJECT_TYPE":"DEBRIS","PERIOD":"654.567","INCLINATION":"63.2792","ECCENTRICITY":"0.73328160","MEAN_MOTION":"2.19992787","TLE_LINE1":"1 25588U 83078E   21269.57233281  .00000130  00000-0  15007-3 0  9995","TLE_LINE2":"2 25588  63.2792 318.0793 7332816 274.4369  12.9729  2.19992787 18985"},{"OBJECT_ID":"1999-017E","OBJECT_NAME":"USA 142 DEB","NORAD_CAT_ID":"25675","OBJECT_TYPE":"DEBRIS","PERIOD":"335.758","INCLINATION":"29.0421","ECCENTRICITY":"0.57994180","MEAN_MOTION":"4.28880733","TLE_LINE1":"1 25675U 99017E   21270.90654810  .00006752  00000-0  31492-2 0  9997","TLE_LINE2":"2 25675  29.0421 147.6727 5799418 178.0424 186.0681  4.28880733 33591"},{"OBJECT_ID":"1985-118X","OBJECT_NAME":"SL-12 DEB","NORAD_CAT_ID":"25684","OBJECT_TYPE":"DEBRIS","PERIOD":"285.685","INCLINATION":"64.8748","ECCENTRICITY":"0.52162210","MEAN_MOTION":"5.04052013","TLE_LINE1":"1 25684U 85118X   21269.63226227  .00002307  00000-0  40725-2 0  9990","TLE_LINE2":"2 25684  64.8748   9.4152 5216221 128.8946 290.5221  5.04052013413977"},{"OBJECT_ID":"1979-104G","OBJECT_NAME":"ARIANE 1 DEB","NORAD_CAT_ID":"25765","OBJECT_TYPE":"DEBRIS","PERIOD":"333.294","INCLINATION":"19.8453","ECCENTRICITY":"0.57421440","MEAN_MOTION":"4.32050620","TLE_LINE1":"1 25765U 79104G   21270.82097945  .00004375  00000-0  40055-2 0  9997","TLE_LINE2":"2 25765  19.8453 190.6221 5742144   0.1889 359.9569  4.32050620349443"},{"OBJECT_ID":"1979-104J","OBJECT_NAME":"ARIANE 1 DEB","NORAD_CAT_ID":"25767","OBJECT_TYPE":"DEBRIS","PERIOD":"171.124","INCLINATION":"17.8354","ECCENTRICITY":"0.34404990","MEAN_MOTION":"8.41492902","TLE_LINE1":"1 25767U 79104J   21271.76616750  .00012835  00000-0  13213-2 0  9990","TLE_LINE2":"2 25767  17.8354 320.6808 3440499  89.0358 309.4537  8.41492902648389"},{"OBJECT_ID":"1961-018F","OBJECT_NAME":"MIDAS 3 DEB","NORAD_CAT_ID":"25793","OBJECT_TYPE":"DEBRIS","PERIOD":"161.225","INCLINATION":"91.1603","ECCENTRICITY":"0.00831390","MEAN_MOTION":"8.93164076","TLE_LINE1":"1 25793U 61018F   21272.02737392 -.00000037  00000-0 -13383-1 0  9990","TLE_LINE2":"2 25793  91.1603 143.9819 0083139 173.8882 186.3023  8.93164076847640"},{"OBJECT_ID":"1989-001K","OBJECT_NAME":"SL-12 DEB","NORAD_CAT_ID":"25798","OBJECT_TYPE":"DEBRIS","PERIOD":"244.667","INCLINATION":"64.8907","ECCENTRICITY":"0.45633060","MEAN_MOTION":"5.88555218","TLE_LINE1":"1 25798U 89001K   21271.35688708  .00004834  00000-0  21188-1 0  9997","TLE_LINE2":"2 25798  64.8907 285.0338 4563306 344.7761 232.1106  5.88555218174784"},{"OBJECT_ID":"1987-079P","OBJECT_NAME":"SL-12 DEB","NORAD_CAT_ID":"25804","OBJECT_TYPE":"DEBRIS","PERIOD":"218.437","INCLINATION":"64.9389","ECCENTRICITY":"0.43617500","MEAN_MOTION":"6.59228117","TLE_LINE1":"1 25804U 87079P   21272.17035595  .00002655  00000-0  11234-2 0  9990","TLE_LINE2":"2 25804  64.9389 211.5214 4361750 232.7975  79.0093  6.59228117503699"},{"OBJECT_ID":"1987-079S","OBJECT_NAME":"SL-12 DEB","NORAD_CAT_ID":"25807","OBJECT_TYPE":"DEBRIS","PERIOD":"310.333","INCLINATION":"65.1701","ECCENTRICITY":"0.55209320","MEAN_MOTION":"4.64017069","TLE_LINE1":"1 25807U 87079S   21268.38336611  .00000294  00000-0  38175-3 0  9995","TLE_LINE2":"2 25807  65.1701 352.7664 5520932  26.7752 353.4020  4.64017069388454"},{"OBJECT_ID":"1987-079T","OBJECT_NAME":"SL-12 DEB","NORAD_CAT_ID":"25808","OBJECT_TYPE":"DEBRIS","PERIOD":"241.811","INCLINATION":"64.9075","ECCENTRICITY":"0.47492320","MEAN_MOTION":"5.95507336","TLE_LINE1":"1 25808U 87079T   21249.28687211  .00045419  00000-0  17379-1 0  9998","TLE_LINE2":"2 25808  64.9075 174.1795 4749232 338.2243   6.9337  5.95507336161229"},{"OBJECT_ID":"1987-079U","OBJECT_NAME":"SL-12 DEB","NORAD_CAT_ID":"25809","OBJECT_TYPE":"DEBRIS","PERIOD":"228.089","INCLINATION":"65.0862","ECCENTRICITY":"0.45381090","MEAN_MOTION":"6.31331663","TLE_LINE1":"1 25809U 87079U   21257.63295295  .00008976  00000-0  32502-2 0  9997","TLE_LINE2":"2 25809  65.0862 333.5880 4538109 218.3610  98.6564  6.31331663484943"},{"OBJECT_ID":"1987-079V","OBJECT_NAME":"SL-12 DEB","NORAD_CAT_ID":"25810","OBJECT_TYPE":"DEBRIS","PERIOD":"236.996","INCLINATION":"64.5527","ECCENTRICITY":"0.45849820","MEAN_MOTION":"6.07606203","TLE_LINE1":"1 25810U 87079V   21271.96011485  .00000720  00000-0  88795-3 0  9993","TLE_LINE2":"2 25810  64.5527 100.1765 4584982  72.9693 331.2483  6.07606203472460"},{"OBJECT_ID":"1989-101Q","OBJECT_NAME":"SL-12 DEB","NORAD_CAT_ID":"25818","OBJECT_TYPE":"DEBRIS","PERIOD":"178.965","INCLINATION":"46.3110","ECCENTRICITY":"0.34090110","MEAN_MOTION":"8.04627617","TLE_LINE1":"1 25818U 89101Q   21272.40176866  .00012272  00000-0  15094-1 0  9999","TLE_LINE2":"2 25818  46.3110 272.8102 3409011 256.4500 295.7743  8.04627617662184"},{"OBJECT_ID":"1984-023D","OBJECT_NAME":"ARIANE 1 DEB","NORAD_CAT_ID":"25822","OBJECT_TYPE":"DEBRIS","PERIOD":"567.305","INCLINATION":"8.3636","ECCENTRICITY":"0.67207420","MEAN_MOTION":"2.53831753","TLE_LINE1":"1 25822U 84023D   21271.59563809 -.00000023  00000-0  00000+0 0  9999","TLE_LINE2":"2 25822   8.3636  14.7983 6720742 237.1172 219.3133  2.53831753210822"},{"OBJECT_ID":"1984-023E","OBJECT_NAME":"ARIANE 1 DEB","NORAD_CAT_ID":"25823","OBJECT_TYPE":"DEBRIS","PERIOD":"551.211","INCLINATION":"7.9172","ECCENTRICITY":"0.68025830","MEAN_MOTION":"2.61243041","TLE_LINE1":"1 25823U 84023E   21272.05101760 -.00000362  00000-0 -97288-2 0  9990","TLE_LINE2":"2 25823   7.9172 149.4253 6802583 322.9217 300.0973  2.61243041214826"},{"OBJECT_ID":"1984-023F","OBJECT_NAME":"ARIANE 1 DEB","NORAD_CAT_ID":"25824","OBJECT_TYPE":"DEBRIS","PERIOD":"561.044","INCLINATION":"8.3305","ECCENTRICITY":"0.67983240","MEAN_MOTION":"2.56664471","TLE_LINE1":"1 25824U 84023F   21260.42904071  .00000162  00000-0  65189-2 0  9996","TLE_LINE2":"2 25824   8.3305   0.3357 6798324 265.5731  34.5151  2.56664471210203"},{"OBJECT_ID":"1979-104L","OBJECT_NAME":"ARIANE 1 DEB","NORAD_CAT_ID":"25837","OBJECT_TYPE":"DEBRIS","PERIOD":"148.829","INCLINATION":"17.9918","ECCENTRICITY":"0.28372890","MEAN_MOTION":"9.67555120","TLE_LINE1":"1 25837U 79104L   21271.10514719  .00031846 -30078-5  14424-2 0  9990","TLE_LINE2":"2 25837  17.9918  45.2309 2837289 232.0496 312.8960  9.67555120286746"},{"OBJECT_ID":"1983-072C","OBJECT_NAME":"ATLAS 75E DEB","NORAD_CAT_ID":"25842","OBJECT_TYPE":"DEBRIS","PERIOD":"367.424","INCLINATION":"64.8216","ECCENTRICITY":"0.54567600","MEAN_MOTION":"3.91918071","TLE_LINE1":"1 25842U 83072C   21266.39267396 -.00000026  00000-0  00000-0 0  9992","TLE_LINE2":"2 25842  64.8216 265.5509 5456760 157.6288 357.8435  3.91918071  7788"},{"OBJECT_ID":"1989-062H","OBJECT_NAME":"ARIANE 44LP DEB","NORAD_CAT_ID":"25844","OBJECT_TYPE":"DEBRIS","PERIOD":"487.947","INCLINATION":"7.3134","ECCENTRICITY":"0.67106690","MEAN_MOTION":"2.95113864","TLE_LINE1":"1 25844U 89062H   21271.76245047  .00001191  00000-0  18100-2 0  9990","TLE_LINE2":"2 25844   7.3134 273.5593 6710669  65.0243 348.6187  2.95113864231239"},{"OBJECT_ID":"1994-016D","OBJECT_NAME":"DELTA 2 DEB","NORAD_CAT_ID":"25904","OBJECT_TYPE":"DEBRIS","PERIOD":"141.771","INCLINATION":"34.5070","ECCENTRICITY":"0.26525500","MEAN_MOTION":"10.15724638","TLE_LINE1":"1 25904U 94016D   21271.43114883  .00014154  48319-6  25783-3 0  9999","TLE_LINE2":"2 25904  34.5070 322.7931 2652550  39.0956 337.4210 10.15724638708399"},{"OBJECT_ID":"1991-015J","OBJECT_NAME":"ARIANE 44LP DEB","NORAD_CAT_ID":"25928","OBJECT_TYPE":"DEBRIS","PERIOD":"496.853","INCLINATION":"7.6556","ECCENTRICITY":"0.66652200","MEAN_MOTION":"2.89823881","TLE_LINE1":"1 25928U 91015J   21271.58567635  .00000718  00000-0  51695-2 0  9994","TLE_LINE2":"2 25928   7.6556  77.9841 6665220 146.8365 255.6075  2.89823881249030"},{"OBJECT_ID":"1986-010D","OBJECT_NAME":"CZ-3 DEB","NORAD_CAT_ID":"25936","OBJECT_TYPE":"DEBRIS","PERIOD":"505.290","INCLINATION":"30.7778","ECCENTRICITY":"0.67471550","MEAN_MOTION":"2.84984767","TLE_LINE1":"1 25936U 86010D   21270.34863731 -.00000580  00000-0 -15046-2 0  9990","TLE_LINE2":"2 25936  30.7778 324.6717 6747155  95.7518 338.4232  2.84984767212396"},{"OBJECT_ID":"1987-079W","OBJECT_NAME":"SL-12 DEB","NORAD_CAT_ID":"26037","OBJECT_TYPE":"DEBRIS","PERIOD":"312.603","INCLINATION":"64.7503","ECCENTRICITY":"0.55247760","MEAN_MOTION":"4.60648058","TLE_LINE1":"1 26037U 87079W   21270.77793243  .00002809  00000-0  38129-2 0  9997","TLE_LINE2":"2 26037  64.7503  32.6963 5524776 152.2839 253.5385  4.60648058384322"},{"OBJECT_ID":"1965-108AG","OBJECT_NAME":"TITAN 3C TRANSTAGE DEB","NORAD_CAT_ID":"26048","OBJECT_TYPE":"DEBRIS","PERIOD":"413.724","INCLINATION":"26.4063","ECCENTRICITY":"0.63585100","MEAN_MOTION":"3.48058141","TLE_LINE1":"1 26048U 65108AG  21271.92323255  .00001856  00000-0  85533-3 0  9991","TLE_LINE2":"2 26048  26.4063  90.9994 6358510 144.9287 281.4422  3.48058141272149"},{"OBJECT_ID":"1965-108AH","OBJECT_NAME":"TITAN 3C TRANSTAGE DEB","NORAD_CAT_ID":"26049","OBJECT_TYPE":"DEBRIS","PERIOD":"256.316","INCLINATION":"27.2512","ECCENTRICITY":"0.48948320","MEAN_MOTION":"5.61806272","TLE_LINE1":"1 26049U 65108AH  21265.06413377  .00002685  00000-0  25089-2 0  9995","TLE_LINE2":"2 26049  27.2512  43.8524 4894832 125.2634 290.9057  5.61806272 11831"}]